ION SCV-004             
1 50993U 22002K   26068.68892644  .00006538  00000+0  23198-3 0  9998
2 50993  97.2961 128.2294 0007216   1.6783 358.4480 15.29369331230088
STARLINK-32858          
1 62962U 25029Q   26068.76334364  .00029084  00000+0  99017-3 0  9992
2 62962  53.1590 231.7783 0001051  98.2042 261.9078 15.30202815 61314
